{
  "norad_id": 56810,
  "name": "STARLINK-6031",
  "history": [
    {
      "epoch": "2026-03-28T22:20:36.494016",
      "apogee_km": 573.8021502469192,
      "perigee_km": 570.2464477263584,
      "latitude_deg": -43.85124714612033,
      "longitude_deg": -49.62611776008271,
      "semi_major_axis_km": 6950.161298986639,
      "eccentricity": 0.0002558,
      "inclination_deg": 69.9982,
      "raan_deg": 295.8906,
      "arg_perigee_deg": 274.2426,
      "mean_anomaly_deg": 85.8441,
      "mean_motion_rev_day": 14.98340216
    },
    {
      "epoch": "2026-03-28T22:20:36.494880",
      "apogee_km": 573.8022197485334,
      "perigee_km": 570.246378224746,
      "latitude_deg": -43.85125587645443,
      "longitude_deg": -49.62611680012196,
      "semi_major_axis_km": 6950.161298986639,
      "eccentricity": 0.00025581,
      "inclination_deg": 69.9982,
      "raan_deg": 295.8906,
      "arg_perigee_deg": 274.2426,
      "mean_anomaly_deg": 85.8441,
      "mean_motion_rev_day": 14.98340216
    }
  ]
}